ORBCOMM FM103           
1 40091U 14040F   25103.91291548  .00001387  00000+0  33533-3 0  9991
2 40091  47.0066 321.3233 0001967 333.7502  26.3283 14.58041241554729
ORBCOMM FM114           
1 41179U 15081A   25103.79940659  .00001664  00000+0  39436-3 0  9991
2 41179  47.0019 230.9420 0001251  46.0851 314.0137 14.58099736495074
ORBCOMM FM119           
1 41180U 15081B   25103.44167416  .00001283  00000+0  31293-3 0  9997
2 41180  46.9989 141.9214 0000454 189.2389 170.8488 14.58014905496277
ORBCOMM FM105           
1 41181U 15081C   25103.78773620  .00000589  00000+0  21148-3 0  9991
2 41181  46.9999 138.9902 0001441 355.2417   4.8449 14.45153203491430
ORBCOMM FM110           
1 41182U 15081D   25103.70742786  .00002197  00000+0  51063-3 0  9999
2 41182  47.0008 230.7523 0002693 236.6349 123.4279 14.57956372494938
ORBCOMM FM118           
1 41183U 15081E   25103.82938644  .00002195  00000+0  50900-3 0  9990
2 41183  47.0033 230.6357 0003185 214.4614 145.6065 14.58057430495058
ORBCOMM FM112           
1 41184U 15081F   25103.48666862  .00001404  00000+0  33949-3 0  9999
2 41184  46.9978 140.8700 0000565  19.6114 340.4793 14.57967528496228
ORBCOMM FM113           
1 41185U 15081G   25103.46359064  .00001410  00000+0  34044-3 0  9995
2 41185  46.9993 141.2951 0000134  16.8515 343.2375 14.58005781496205
